OBJECT_NAME,OBJECT_ID,EPOCH,MEAN_MOTION,ECCENTRICITY,INCLINATION,RA_OF_ASC_NODE,ARG_OF_PERICENTER,MEAN_ANOMALY,EPHEMERIS_TYPE,CLASSIFICATION_TYPE,NORAD_CAT_ID,ELEMENT_SET_NO,REV_AT_EPOCH,BSTAR,MEAN_MOTION_DOT,MEAN_MOTION_DDOT
GSAT0210 (GALILEO 13),2016-030B,2026-06-25T06:22:49.933344,1.70473937,.0008659,55.0912,221.4705,257.5264,102.4641,0,U,41550,999,6280,0,.56E-6,0
THAICOM 8,2016-031A,2026-06-27T04:19:31.806336,1.00272227,.00038251,0.0726,48.2454,18.4607,351.9596,0,U,41552,999,3681,0,-.11E-5,0
ZIYUAN 3-02 (ZY 3-02),2016-033A,2026-06-27T07:39:59.387040,15.21272539,.00125113,97.3839,253.8987,251.4058,108.5820,0,U,41556,999,55952,.2422E-3,.5355E-4,0
COSMOS 2517 (GEO-IK 2),2016-034A,2026-06-27T07:44:25.200096,13.85911160,.00010378,99.1878,186.9158,89.7097,270.4178,0,U,41579,999,50903,.4061172E-4,.3E-7,0
INTELSAT 31 (IS-31),2016-035A,2026-06-27T05:58:01.351200,1.00271675,.0000602,0.0144,289.9489,334.4134,5.4535,0,U,41581,999,3678,0,-.139E-5,0
BEIDOU-2 G7,2016-037A,2026-06-27T02:45:54.205344,1.00272312,.00068458,1.7449,69.4127,1.5210,356.3270,0,U,41586,999,698,0,-.343E-5,0
ABS-2A (MONGOLSAT-1),2016-038A,2026-06-27T02:35:47.673888,1.00267072,.00017461,0.0262,6.4067,35.6984,346.8174,0,U,41588,999,3680,0,0,0
EUTELSAT 117 WEST B,2016-038B,2026-06-27T01:41:06.029952,1.00274127,.00004514,0.0096,147.4865,108.1501,287.8476,0,U,41589,999,3676,0,0,0
BRISAT,2016-039A,2026-06-27T03:48:38.902176,1.00273599,.00021235,0.0191,325.5043,125.5768,31.8459,0,U,41591,999,3671,0,-.184E-5,0
ECHOSTAR 18,2016-039B,2026-06-27T04:17:38.757120,1.00268438,.00018066,0.0281,21.2244,78.6813,178.4315,0,U,41592,999,3672,0,0,0
CARTOSAT-2C,2016-040A,2026-06-27T06:28:13.672416,15.19267674,.0010542,97.4484,238.1088,100.8453,259.3969,0,U,41599,999,55524,.20075336E-3,.417E-4,0
SKYSAT-C1,2016-040C,2026-06-27T01:13:36.486336,15.36462513,.00025271,96.9564,209.2368,37.9380,322.2043,0,U,41601,999,55938,.27289081E-3,.9636E-4,0
LAPAN-A3,2016-040E,2026-06-27T07:23:08.412000,15.33168965,.00096025,97.1487,174.1210,350.3537,9.7520,0,U,41603,999,55636,.12589448E-3,.3963E-4,0
MUOS-5,2016-041A,2026-06-27T05:10:13.029312,1.00273348,.01980183,2.1820,301.8503,260.6024,45.2428,0,U,41622,999,3718,0,-.133E-5,0
SJ 16-02,2016-043A,2026-06-27T07:48:13.835232,14.93605573,.00077236,75.0033,259.7831,1.3241,358.7967,0,U,41634,999,54265,.142439E-3,.1475E-4,0
TIANTONG-1 1,2016-048A,2026-06-27T02:43:24.443904,1.00271076,.00059221,3.8680,43.5006,49.3638,324.6397,0,U,41725,999,3637,0,-.309E-5,0
GAOFEN-3,2016-049A,2026-06-27T06:46:51.661632,14.42217456,.00016109,98.4012,185.9161,97.6427,262.4946,0,U,41727,999,52010,.98566357E-4,.281E-5,0
JCSAT-16,2016-050A,2026-06-26T21:47:34.039104,1.00271139,.0001301,0.0179,14.0448,89.4455,282.3758,0,U,41729,999,3616,0,-.24E-5,0
USA 270,2016-052A,2026-06-25T15:01:47.554176,0.99500516,.0000668,4.2178,77.0981,157.1810,56.2495,0,U,41744,999,2821,0,-.284E-5,0
USA 271,2016-052B,2026-06-25T18:13:09.824736,0.99833204,.0001955,4.1909,77.1447,290.7679,281.9940,0,U,41745,999,2800,0,-.236E-5,0
INTELSAT 36 (IS-36),2016-053A,2026-06-26T20:19:51.545568,1.00266822,.00017395,0.0108,13.4633,328.7334,306.2396,0,U,41747,999,3605,0,-.12E-6,0
INSAT-3DR,2016-054A,2026-06-27T02:35:32.698176,1.00272424,.00100525,0.1309,86.1866,186.7850,115.1093,0,U,41752,999,3591,0,-.65E-6,0
PERUSAT 1,2016-058A,2026-06-27T07:42:40.578336,14.58564477,.00012627,98.2023,251.8382,84.6269,275.5074,0,U,41770,999,52057,.79277151E-4,.323E-5,0
SKYSAT-C4,2016-058B,2026-06-27T00:34:27.716160,15.48889148,.00021163,96.9173,199.3847,140.2622,219.8786,0,U,41771,999,54699,.32846344E-3,.17634E-3,0
SKYSAT-C5,2016-058C,2026-06-27T01:56:30.649920,15.34605678,.00012553,97.0469,218.2797,217.2936,142.8221,0,U,41772,999,54526,.23869226E-3,.7929E-4,0
SKYSAT-C2,2016-058D,2026-06-27T01:22:21.909792,15.42289113,.00037738,97.0164,199.7812,48.8465,311.3108,0,U,41773,999,54657,.30114524E-3,.12888E-3,0
SKYSAT-C3,2016-058E,2026-06-27T07:49:02.914752,15.52965864,.00012616,96.9009,208.7836,122.4078,237.7298,0,U,41774,999,54768,.38562835E-3,.23961E-3,0
PISAT,2016-059B,2026-06-26T22:51:46.582272,14.68999168,.0029196,97.8180,177.9858,171.3443,188.8272,0,U,41784,999,52117,.16112E-3,.903E-5,0
ALSAT-1B,2016-059C,2026-06-27T07:10:11.176608,14.72281630,.00089033,97.7750,186.6261,184.5989,175.5139,0,U,41785,999,52206,.49775064E-4,.267E-5,0
ALSAT-2B,2016-059D,2026-06-27T06:41:37.328064,14.70885213,.00015783,97.9897,240.3569,114.4762,245.6609,0,U,41786,999,52225,.16387435E-3,.954E-5,0
PATHFINDER 1,2016-059E,2026-06-27T05:26:25.046592,14.67673782,.00286454,97.8167,177.0499,171.3104,188.8603,0,U,41787,999,52118,.11179908E-3,.593E-5,0
